PERSEUS-M1              
1 40039U 14033AF  26158.80352856  .00002406  00000+0  22194-3 0  9998
2 40039  97.9642 102.7818 0010797 337.2410  22.8330 14.95606924649234
POLYITAN-1              
1 40042U 14033AJ  26159.04517620  .00019032  00000+0  59961-3 0  9996
2 40042  98.0952 184.4437 0007909 168.1396 192.0032 15.32938693652194
TIGRISAT                
1 40043U 14033AK  26159.15501159  .00002433  00000+0  28416-3 0  9997
2 40043  97.7825 309.3746 0050717 104.0252 256.6609 14.85126633644284
AEROCUBE 6A             
1 40045U 14033AM  26159.20672198  .00005623  00000+0  47354-3 0  9993
2 40045  97.7225 326.2518 0039365  47.7354 312.7195 14.98009378645271
AEROCUBE 6B             
1 40046U 14033AN  26159.01762094  .00007460  00000+0  60319-3 0  9995
2 40046  97.7231 325.8341 0039053  40.3592 320.0517 14.99472316645384
CANX-4                  
1 40055U 14034C   26159.23518149  .00001005  00000+0  13618-3 0  9999
2 40055  98.3133  34.2191 0013740  44.2907 315.9401 14.81248501643206
CANX-5                  
1 40056U 14034D   26159.16616803  .00001009  00000+0  13663-3 0  9992
2 40056  98.3136  34.1908 0013743  44.6242 315.6074 14.81265470634009
UKUBE-1                 
1 40074U 14037F   26159.24291910  .00007432  00000+0  42040-3 0  9999
2 40074  98.4241 161.5760 0002101 144.8287 215.3081 15.13409283647204
BRITE-PL2 (HEWELIUSZ)   
1 40119U 14049B   26159.20108343  .00002529  00000+0  23888-3 0  9996
2 40119  97.9088 271.1327 0015155 135.2665 224.9780 14.94564336640104
AEROCUBE 5C             
1 40965U 15058B   26158.78328834  .00003263  00000+0  29173-3 0  9996
2 40965  64.7679 291.8442 0130387  66.9648 294.5152 14.91410167364258
AEROCUBE 7              
1 40966U 15058C   26158.67270442  .00004260  00000+0  34427-3 0  9992
2 40966  64.7628 274.6159 0120112  65.4910 295.8672 14.95665181364532
FOX-1A (AO-85)          
1 40967U 15058D   26158.76074733  .00003179  00000+0  28859-3 0  9998
2 40967  64.7763 308.2774 0129935  60.2802 301.1167 14.90923768112168
SINOD-D 1               
1 40968U 15058E   26158.71865276  .00004342  00000+0  35022-3 0  9997
2 40968  64.7758 288.5630 0118499  56.8567 304.3850 14.95844977115241
SNAP-3 ALICE            
1 40970U 15058G   26159.19344223  .00105286  00000+0  13498-2 0  9998
2 40970  64.7501 134.9719 0030689  17.5094 342.7101 15.58029356115482
LMRST-SAT               
1 40971U 15058H   26159.11621858  .00003092  00000+0  28277-3 0  9997
2 40971  64.7765 303.4935 0131614  62.1648 299.2728 14.90549575112202
SNAP-3 EDDIE            
1 40972U 15058J   26159.19051797  .00100423  00000+0  12325-2 0  9997
2 40972  64.7422 125.7723 0030594  21.6245 338.6184 15.59200283117622
PROPCUBE 3              
1 40973U 15058K   26158.77246674  .00003824  00000+0  32023-3 0  9996
2 40973  64.7694 281.9498 0123617  63.6528 297.7217 14.94205306113398
BISONSAT                
1 40974U 15058L   26159.19412687  .00008316  00000+0  40823-3 0  9991
2 40974  64.7589 202.7150 0078390  50.9704 309.8363 15.16004053114254
SNAP-3 JIMI             
1 40975U 15058M   26158.60303012  .00005594  00000+0  38730-3 0  9997
2 40975  64.7649 250.0943 0105647  59.2946 301.8529 15.02216903112780
PROPCUBE 1 (FLORA)      
1 40976U 15058N   26158.86134575  .00003117  00000+0  29617-3 0  9995
2 40976  64.7759 324.1389 0130343  64.5742 296.8792 14.89178132114876
SINOD-D 3               
1 40977U 15058P   26159.13731123  .00003545  00000+0  30324-3 0  9991
2 40977  64.7736 304.0780 0118853  61.7349 299.5699 14.93957578113406
HORYU-4                 
1 41340U 16012D   26158.66010672  .00317249  00000+0  10211-2 0  9994
2 41340  30.9848 148.6331 0002832 206.9121 153.1392 15.89027763569291
RAVAN                   
1 41849U 16067B   26159.28783757  .00044231  00000+0  68704-3 0  9997
2 41849  97.9898  47.8371 0005720  55.8625 304.3169 15.53822608526316
CELTEE 1                
1 41850U 16067C   26158.59350629  .00006003  00000+0  28566-3 0  9997
2 41850  98.0684  24.5061 0000604  94.7001 265.4301 15.19589092524421
OPTICUBE 04             
1 41851U 16067D   26159.13108259  .00002793  00000+0  17761-3 0  9996
2 41851  98.0712  10.9424 0016428 144.2264 216.0067 15.09621673523802
AEROCUBE 8D             
1 41852U 16067E   26159.16239091  .00006453  00000+0  26754-3 0  9998
2 41852  98.0698  28.6474 0004126 145.6615 214.4887 15.24271394524692
AEROCUBE 8C             
1 41853U 16067F   26159.18884633  .00006851  00000+0  28167-3 0  9991
2 41853  98.0569  25.9153 0006831  93.2611 266.9407 15.24516971524696
CORVUS BC2              
1 42846U 17042X   26159.02733466  .00003387  00000+0  23448-3 0  9996
2 42846  97.4062 320.7350 0014202 138.2076 222.0239 15.06239540485686
CORVUS BC1              
1 42847U 17042Y   26159.02298042  .00003322  00000+0  22909-3 0  9993
2 42847  97.4086 321.5388 0013330 117.0197 243.2393 15.06406941485714
MAKERSAT 0              
1 43016U 17073D   26158.64340438  .00021201  00000+0  58054-3 0  9996
2 43016  97.4640  41.0894 0106135 307.5668  51.5969 15.31756991465000
