OBJECT_NAME,OBJECT_ID,EPOCH,MEAN_MOTION,ECCENTRICITY,INCLINATION,RA_OF_ASC_NODE,ARG_OF_PERICENTER,MEAN_ANOMALY,EPHEMERIS_TYPE,CLASSIFICATION_TYPE,NORAD_CAT_ID,ELEMENT_SET_NO,REV_AT_EPOCH,BSTAR,MEAN_MOTION_DOT,MEAN_MOTION_DDOT
PERSEUS-M1,2014-033AF,2026-06-07T19:17:04.867584,14.95606924,.00107973,97.9642,102.7818,337.2410,22.8330,0,U,40039,999,64923,.22193807E-3,.2406E-4,0
POLYITAN-1,2014-033AJ,2026-06-08T01:05:03.223680,15.32938693,.00079092,98.0952,184.4437,168.1396,192.0032,0,U,40042,999,65219,.5996053E-3,.19032E-3,0
TIGRISAT,2014-033AK,2026-06-08T03:43:13.001376,14.85126633,.00507171,97.7825,309.3746,104.0252,256.6609,0,U,40043,999,64428,.28416481E-3,.2433E-4,0
AEROCUBE 6A,2014-033AM,2026-06-08T04:57:40.779072,14.98009378,.00393658,97.7225,326.2518,47.7354,312.7195,0,U,40045,999,64527,.4735405E-3,.5623E-4,0
AEROCUBE 6B,2014-033AN,2026-06-08T00:25:22.449216,14.99472316,.00390531,97.7231,325.8341,40.3592,320.0517,0,U,40046,999,64538,.6031853E-3,.746E-4,0
CANX-4,2014-034C,2026-06-08T05:38:39.680736,14.81248501,.00137406,98.3133,34.2191,44.2907,315.9401,0,U,40055,999,64320,.13618294E-3,.1005E-4,0
CANX-5,2014-034D,2026-06-08T03:59:16.917792,14.81265470,.00137439,98.3136,34.1908,44.6242,315.6074,0,U,40056,999,63400,.13662555E-3,.1009E-4,0
UKUBE-1,2014-037F,2026-06-08T05:49:48.210240,15.13409283,.00021017,98.4241,161.5760,144.8287,215.3081,0,U,40074,999,64720,.42039937E-3,.7432E-4,0
BRITE-PL2 (HEWELIUSZ),2014-049B,2026-06-08T04:49:33.608352,14.94564336,.0015155,97.9088,271.1327,135.2665,224.9780,0,U,40119,999,64010,.23888273E-3,.2529E-4,0
AEROCUBE 5C,2015-058B,2026-06-07T18:47:56.112576,14.91410167,.01303874,64.7679,291.8442,66.9648,294.5152,0,U,40965,999,36425,.29173402E-3,.3263E-4,0
AEROCUBE 7,2015-058C,2026-06-07T16:08:41.661888,14.95665181,.01201129,64.7628,274.6159,65.4910,295.8672,0,U,40966,999,36453,.34427252E-3,.426E-4,0
FOX-1A (AO-85),2015-058D,2026-06-07T18:15:28.569312,14.90923768,.01299354,64.7763,308.2774,60.2802,301.1167,0,U,40967,999,11216,.28859398E-3,.3179E-4,0
SINOD-D 1,2015-058E,2026-06-07T17:14:51.598464,14.95844977,.01184998,64.7758,288.5630,56.8567,304.3850,0,U,40968,999,11524,.35021532E-3,.4342E-4,0
SNAP-3 ALICE,2015-058G,2026-06-08T04:38:33.408672,15.58029356,.00306893,64.7501,134.9719,17.5094,342.7101,0,U,40970,999,11548,.1349846E-2,.105286E-2,0
LMRST-SAT,2015-058H,2026-06-08T02:47:21.285312,14.90549575,.01316146,64.7765,303.4935,62.1648,299.2728,0,U,40971,999,11220,.28276563E-3,.3092E-4,0
SNAP-3 EDDIE,2015-058J,2026-06-08T04:34:20.752608,15.59200283,.00305946,64.7422,125.7723,21.6245,338.6184,0,U,40972,999,11762,.12325481E-2,.100423E-2,0
PROPCUBE 3,2015-058K,2026-06-07T18:32:21.126336,14.94205306,.0123617,64.7694,281.9498,63.6528,297.7217,0,U,40973,999,11339,.32023488E-3,.3824E-4,0
BISONSAT,2015-058L,2026-06-08T04:39:32.561568,15.16004053,.00783906,64.7589,202.7150,50.9704,309.8363,0,U,40974,999,11425,.40822776E-3,.8316E-4,0
SNAP-3 JIMI,2015-058M,2026-06-07T14:28:21.802368,15.02216903,.01056473,64.7649,250.0943,59.2946,301.8529,0,U,40975,999,11278,.38730021E-3,.5594E-4,0
PROPCUBE 1 (FLORA),2015-058N,2026-06-07T20:40:20.272800,14.89178132,.01303439,64.7759,324.1389,64.5742,296.8792,0,U,40976,999,11487,.29617202E-3,.3117E-4,0
SINOD-D 3,2015-058P,2026-06-08T03:17:43.690272,14.93957578,.01188533,64.7736,304.0780,61.7349,299.5699,0,U,40977,999,11340,.3032366E-3,.3545E-4,0
HORYU-4,2016-012D,2026-06-07T15:50:33.220608,15.89027763,.00028324,30.9848,148.6331,206.9121,153.1392,0,U,41340,999,56929,.1021123E-2,.317249E-2,0
RAVAN,2016-067B,2026-06-08T06:54:29.166048,15.53822608,.00057203,97.9898,47.8371,55.8625,304.3169,0,U,41849,999,52631,.68703602E-3,.44231E-3,0
CELTEE 1,2016-067C,2026-06-07T14:14:38.943456,15.19589092,.00006044,98.0684,24.5061,94.7001,265.4301,0,U,41850,999,52442,.28566386E-3,.6003E-4,0
OPTICUBE 04,2016-067D,2026-06-08T03:08:45.535776,15.09621673,.00164282,98.0712,10.9424,144.2264,216.0067,0,U,41851,999,52380,.1776104E-3,.2793E-4,0
AEROCUBE 8D,2016-067E,2026-06-08T03:53:50.574624,15.24271394,.0004126,98.0698,28.6474,145.6615,214.4887,0,U,41852,999,52469,.2675402E-3,.6453E-4,0
AEROCUBE 8C,2016-067F,2026-06-08T04:31:56.322912,15.24516971,.00068313,98.0569,25.9153,93.2611,266.9407,0,U,41853,999,52469,.28167307E-3,.6851E-4,0
CORVUS BC2,2017-042X,2026-06-08T00:39:21.714624,15.06239540,.00142023,97.4062,320.7350,138.2076,222.0239,0,U,42846,999,48568,.23448438E-3,.3387E-4,0
CORVUS BC1,2017-042Y,2026-06-08T00:33:05.508288,15.06406941,.00133302,97.4086,321.5388,117.0197,243.2393,0,U,42847,999,48571,.22908602E-3,.3322E-4,0
MAKERSAT 0,2017-073D,2026-06-07T15:26:30.138432,15.31756991,.01061352,97.4640,41.0894,307.5668,51.5969,0,U,43016,999,46500,.58053729E-3,.21201E-3,0
